ONEWEB-0683             
1 56719U 23068K   25168.74081170  .00000203  00000+0  50592-3 0  9995
2 56719  87.9050 331.8308 0001917  85.4733 274.6616 13.15548278101506
ONEWEB-0684             
1 56720U 23068L   25169.43324324  .00000171  00000+0  41919-3 0  9992
2 56720  87.9025 331.7115 0003117 112.5726 247.5734 13.15547695102124
ONEWEB-0686             
1 56721U 23068M   25169.06624043  .00000022  00000+0  22897-4 0  9993
2 56721  87.9041 301.3815 0002132  94.5092 265.6282 13.16593074104500
ONEWEB-0694             
1 56722U 23068N   25169.10898941  .00000064  00000+0  13374-3 0  9994
2 56722  87.9043 301.2908 0001906  86.4554 273.6795 13.16593544104562
ONEWEB-0696             
1 56723U 23068P   25168.70593929 -.00000077  00000+0 -23880-3 0  9997
2 56723  87.9053 331.8905 0001922 104.1195 256.0149 13.15547820101444
ONEWEB-0703             
1 56724U 23068Q   25169.55208657  .00000011  00000+0 -53815-5 0  9993
2 56724  87.9037 331.7197 0001881 131.0829 229.0464 13.15550010102149
ONEWEB-0721             
1 56725U 23068R   25169.06376342 -.00000022  00000+0 -87301-4 0  9996
2 56725  86.6811 201.5502 0002032  93.0782 267.0583 13.22438226110510
ONEWEB-0015             
1 61594U 24188A   25169.22126696  .00000109  00000+0  27160-3 0  9993
2 61594  87.8872  93.6381 0001533  64.0441 296.0845 13.11417638 34835
